{
  "type": "FeatureCollection",
  "features": [
    {
      "type": "Feature",
      "properties": {
        "norad_id": 44334,
        "name": "EUTELSAT 7C",
        "group": "eutelsat",
        "lat": 0.0010705549484471544,
        "lon": -7.664273772001587,
        "alt_km": 35787.9545545547,
        "timestamp": "2025-12-22T16:55:17.121891+00:00",
        "meta_object_name": "EUTELSAT 7C",
        "meta_object_id": "2019-034B",
        "meta_epoch": "2025-12-22T03:54:38.524896",
        "meta_mean_motion": 1.00270429,
        "meta_eccentricity": 0.00031022,
        "meta_inclination": 0.0729,
        "meta_ra_of_asc_node": 180.3118,
        "meta_arg_of_pericenter": 75.1349,
        "meta_mean_anomaly": 261.1679,
        "meta_ephemeris_type": 0,
        "meta_classification_type": "U",
        "meta_norad_cat_id": 44334,
        "meta_element_set_no": 999,
        "meta_rev_at_epoch": 506,
        "meta_bstar": 0,
        "meta_mean_motion_dot": 7e-07,
        "meta_mean_motion_ddot": 0,
        "tle_line1": "1 44334U 19034B   25356.16294589  .00000070  00000+0  00000+0 0  9995",
        "tle_line2": "2 44334   0.0729 180.3118 0003102  75.1349 261.1679  1.00270429  5063"
      },
      "geometry": {
        "type": "Point",
        "coordinates": [
          -7.664273772001587,
          0.0010705549484471544
        ]
      }
    },
    {
      "type": "Feature",
      "properties": {
        "norad_id": 44624,
        "name": "EUTELSAT 5 WEST B",
        "group": "eutelsat",
        "lat": -0.006429061550052217,
        "lon": -19.6439752918724,
        "alt_km": 35781.7354990777,
        "timestamp": "2025-12-22T16:55:17.121903+00:00",
        "meta_object_name": "EUTELSAT 5 WEST B",
        "meta_object_id": "2019-067A",
        "meta_epoch": "2025-12-22T06:17:32.611200",
        "meta_mean_motion": 1.00271351,
        "meta_eccentricity": 0.00030366,
        "meta_inclination": 0.0656,
        "meta_ra_of_asc_node": 338.4706,
        "meta_arg_of_pericenter": 292.1222,
        "meta_mean_anomaly": 269.8665,
        "meta_ephemeris_type": 0,
        "meta_classification_type": "U",
        "meta_norad_cat_id": 44624,
        "meta_element_set_no": 999,
        "meta_rev_at_epoch": 2266,
        "meta_bstar": 0,
        "meta_mean_motion_dot": -2e-07,
        "meta_mean_motion_ddot": 0,
        "tle_line1": "1 44624U 19067A   25356.26218300 -.00000020  00000+0  00000+0 0  9997",
        "tle_line2": "2 44624   0.0656 338.4706 0003036 292.1222 269.8665  1.00271351 22660"
      },
      "geometry": {
        "type": "Point",
        "coordinates": [
          -19.6439752918724,
          -0.006429061550052217
        ]
      }
    },
    {
      "type": "Feature",
      "properties": {
        "norad_id": 45027,
        "name": "EUTELSAT KONNECT",
        "group": "eutelsat",
        "lat": -0.07225146525177684,
        "lon": -7.462093011226243,
        "alt_km": 35784.6596113763,
        "timestamp": "2025-12-22T16:55:17.121915+00:00",
        "meta_object_name": "EUTELSAT KONNECT",
        "meta_object_id": "2020-005B",
        "meta_epoch": "2025-12-22T03:54:38.524896",
        "meta_mean_motion": 1.00271218,
        "meta_eccentricity": 0.00013186,
        "meta_inclination": 0.0707,
        "meta_ra_of_asc_node": 94.5088,
        "meta_arg_of_pericenter": 184.2033,
        "meta_mean_anomaly": 238.124,
        "meta_ephemeris_type": 0,
        "meta_classification_type": "U",
        "meta_norad_cat_id": 45027,
        "meta_element_set_no": 999,
        "meta_rev_at_epoch": 2256,
        "meta_bstar": 0,
        "meta_mean_motion_dot": 7.1e-07,
        "meta_mean_motion_ddot": 0,
        "tle_line1": "1 45027U 20005B   25356.16294589  .00000071  00000+0  00000+0 0  9996",
        "tle_line2": "2 45027   0.0707  94.5088 0001318 184.2033 238.1240  1.00271218 22569"
      },
      "geometry": {
        "type": "Point",
        "coordinates": [
          -7.462093011226243,
          -0.07225146525177684
        ]
      }
    },
    {
      "type": "Feature",
      "properties": {
        "norad_id": 49056,
        "name": "EUTELSAT QUANTUM",
        "group": "eutelsat",
        "lat": 0.018781850610905714,
        "lon": 33.06540392910039,
        "alt_km": 35791.460824781745,
        "timestamp": "2025-12-22T16:55:17.121927+00:00",
        "meta_object_name": "EUTELSAT QUANTUM",
        "meta_object_id": "2021-069B",
        "meta_epoch": "2025-12-22T03:07:13.338336",
        "meta_mean_motion": 1.00271936,
        "meta_eccentricity": 0.00034622,
        "meta_inclination": 0.0106,
        "meta_ra_of_asc_node": 358.3448,
        "meta_arg_of_pericenter": 282.7947,
        "meta_mean_anomaly": 264.313,
        "meta_ephemeris_type": 0,
        "meta_classification_type": "U",
        "meta_norad_cat_id": 49056,
        "meta_element_set_no": 999,
        "meta_rev_at_epoch": 1615,
        "meta_bstar": 0,
        "meta_mean_motion_dot": 1.48e-06,
        "meta_mean_motion_ddot": 0,
        "tle_line1": "1 49056U 21069B   25356.13001549  .00000148  00000+0  00000+0 0  9997",
        "tle_line2": "2 49056   0.0106 358.3448 0003462 282.7947 264.3130  1.00271936 16153"
      },
      "geometry": {
        "type": "Point",
        "coordinates": [
          33.06540392910039,
          0.018781850610905714
        ]
      }
    },
    {
      "type": "Feature",
      "properties": {
        "norad_id": 53765,
        "name": "EUTELSAT KONNECT VHTS",
        "group": "eutelsat",
        "lat": -0.06322623521682101,
        "lon": -11.91449387635284,
        "alt_km": 35790.88078049091,
        "timestamp": "2025-12-22T16:55:17.121939+00:00",
        "meta_object_name": "EUTELSAT KONNECT VHTS",
        "meta_object_id": "2022-110A",
        "meta_epoch": "2025-12-21T13:12:40.176000",
        "meta_mean_motion": 1.00270894,
        "meta_eccentricity": 0.0002618,
        "meta_inclination": 0.0618,
        "meta_ra_of_asc_node": 99.3714,
        "meta_arg_of_pericenter": 133.7511,
        "meta_mean_anomaly": 58.1537,
        "meta_ephemeris_type": 0,
        "meta_classification_type": "U",
        "meta_norad_cat_id": 53765,
        "meta_element_set_no": 999,
        "meta_rev_at_epoch": 504,
        "meta_bstar": 0,
        "meta_mean_motion_dot": 4e-07,
        "meta_mean_motion_ddot": 0,
        "tle_line1": "1 53765U 22110A   25355.55046500  .00000040  00000+0  00000+0 0  9999",
        "tle_line2": "2 53765   0.0618  99.3714 0002618 133.7511  58.1537  1.00270894  5043"
      },
      "geometry": {
        "type": "Point",
        "coordinates": [
          -11.91449387635284,
          -0.06322623521682101
        ]
      }
    },
    {
      "type": "Feature",
      "properties": {
        "norad_id": 54048,
        "name": "EUTELSAT HOTBIRD 13F",
        "group": "eutelsat",
        "lat": 0.04117404181926413,
        "lon": -1.684287106590447,
        "alt_km": 35776.488299311524,
        "timestamp": "2025-12-22T16:55:17.121952+00:00",
        "meta_object_name": "EUTELSAT HOTBIRD 13F",
        "meta_object_id": "2022-134A",
        "meta_epoch": "2025-12-21T21:49:07.084128",
        "meta_mean_motion": 1.00271763,
        "meta_eccentricity": 0.00022808,
        "meta_inclination": 0.0525,
        "meta_ra_of_asc_node": 292.4073,
        "meta_arg_of_pericenter": 71.4737,
        "meta_mean_anomaly": 67.1177,
        "meta_ephemeris_type": 0,
        "meta_classification_type": "U",
        "meta_norad_cat_id": 54048,
        "meta_element_set_no": 999,
        "meta_rev_at_epoch": 1160,
        "meta_bstar": 0,
        "meta_mean_motion_dot": 1.09e-06,
        "meta_mean_motion_ddot": 0,
        "tle_line1": "1 54048U 22134A   25355.90910977  .00000109  00000+0  00000+0 0  9993",
        "tle_line2": "2 54048   0.0525 292.4073 0002280  71.4737  67.1177  1.00271763 11607"
      },
      "geometry": {
        "type": "Point",
        "coordinates": [
          -1.684287106590447,
          0.04117404181926413
        ]
      }
    },
    {
      "type": "Feature",
      "properties": {
        "norad_id": 54225,
        "name": "EUTELSAT HOTBIRD 13G",
        "group": "eutelsat",
        "lat": 0.030851598590924952,
        "lon": -1.6931899304123756,
        "alt_km": 35793.362667190966,
        "timestamp": "2025-12-22T16:55:17.121964+00:00",
        "meta_object_name": "EUTELSAT HOTBIRD 13G",
        "meta_object_id": "2022-146A",
        "meta_epoch": "2025-12-21T21:49:07.084128",
        "meta_mean_motion": 1.0026968,
        "meta_eccentricity": 0.00016162,
        "meta_inclination": 0.0526,
        "meta_ra_of_asc_node": 226.0316,
        "meta_arg_of_pericenter": 309.1853,
        "meta_mean_anomaly": 255.7772,
        "meta_ephemeris_type": 0,
        "meta_classification_type": "U",
        "meta_norad_cat_id": 54225,
        "meta_element_set_no": 999,
        "meta_rev_at_epoch": 568,
        "meta_bstar": 0,
        "meta_mean_motion_dot": 1.09e-06,
        "meta_mean_motion_ddot": 0,
        "tle_line1": "1 54225U 22146A   25355.90910977  .00000109  00000+0  00000+0 0  9993",
        "tle_line2": "2 54225   0.0526 226.0316 0001616 309.1853 255.7772  1.00269680  5682"
      },
      "geometry": {
        "type": "Point",
        "coordinates": [
          -1.6931899304123756,
          0.030851598590924952
        ]
      }
    }
  ]
}